NORAD_CAT_ID,OBJECT_NAME,OBJECT_TYPE,EPOCH,MEAN_MOTION,ECCENTRICITY,INCLINATION,RA_OF_ASC_NODE,ARG_OF_PERICENTER,MEAN_ANOMALY,BSTAR,MEAN_MOTION_DOT,MEAN_MOTION_DDOT,TLE_LINE0,TLE_LINE1,TLE_LINE2,SEMIMAJOR_AXIS,PERIOD,APOGEE,PERIGEE,DECAYED
56484.0,STARLINK-6221,PAYLOAD,2023-12-22 04:13:03,14.98339149,0.0002625,70.0042,2.9409,255.5205,104.5663,-6.3669e-05,-8.53e-06,0.0,0 STARLINK-6221,1 56484U 23064AN  23356.17573120 -.00000853  00000-0 -63669-4 0  9999,2 56484  70.0042   2.9409 0002625 255.5205 104.5663 14.98339149 34996,6950.165,96.106,573.854,570.205,0.0
56484.0,STARLINK-6221,PAYLOAD,2023-12-22 10:37:35,14.98338265,0.0003009,70.0001,2.2569,274.027,86.0545,-7.334e-05,-9.68e-06,0.0,0 STARLINK-6221,1 56484U 23064AN  23356.44277138 -.00000968  00000-0 -73340-4 0  9993,2 56484  70.0001   2.2569 0003009 274.0270  86.0545 14.98338265 34672,6950.167,96.106,574.124,569.941,0.0
56484.0,STARLINK-6221,PAYLOAD,2023-12-23 04:15:03,14.98342169,0.0002787,70.0008,0.4059,270.1821,89.9019,-0.0001948,-2.417e-05,0.0,0 STARLINK-6221,1 56484U 23064AN  23357.17712793 -.00002417  00000-0 -19480-3 0  9990,2 56484  70.0008   0.4059 0002787 270.1821  89.9019 14.98342169 35143,6950.155,96.106,573.957,570.083,0.0
56484.0,STARLINK-6221,PAYLOAD,2023-12-23 10:39:35,14.98343721,0.0002731,70.0008,359.732,268.7127,91.3719,-0.00014548,-1.829e-05,0.0,0 STARLINK-6221,1 56484U 23064AN  23357.44416339 -.00001829  00000-0 -14548-3 0  9993,2 56484  70.0008 359.7320 0002731 268.7127  91.3719 14.98343721 34828,6950.15,96.106,573.914,570.117,0.0
56484.0,STARLINK-6221,PAYLOAD,2023-12-24 04:17:04,14.98329557,0.0002618,70.001,357.8802,265.4581,94.6279,3.3269e-05,3.04e-06,0.0,0 STARLINK-6221,1 56484U 23064AN  23358.17852476  .00000304  00000-0  33269-4 0  9997,2 56484  70.0010 357.8802 0002618 265.4581  94.6279 14.98329557 35297,6950.194,96.107,573.879,570.24,0.0
56484.0,STARLINK-6221,PAYLOAD,2023-12-24 10:41:36,14.98348804,0.0002275,70.0012,357.2065,258.4724,101.618,-0.00024727,-3.043e-05,0.0,0 STARLINK-6221,1 56484U 23064AN  23358.44555887 -.00003043  00000-0 -24727-3 0  9996,2 56484  70.0012 357.2065 0002275 258.4724 101.6180 14.98348804 35335,6950.135,96.106,573.581,570.419,0.0
56484.0,STARLINK-6221,PAYLOAD,2023-12-25 02:42:57,14.98323468,0.0002606,70.0016,355.5258,243.534,116.5552,-1.3952e-05,-2.59e-06,0.0,0 STARLINK-6221,1 56484U 23064AN  23359.11317048 -.00000259  00000-0 -13952-4 0  9991,2 56484  70.0016 355.5258 0002606 243.5340 116.5552 14.98323468 35439,6950.213,96.107,573.889,570.267,0.0
56484.0,STARLINK-6221,PAYLOAD,2023-12-25 09:07:30,14.98321497,0.0002827,70.0007,354.8504,257.6894,102.3949,-3.8769e-05,-5.55e-06,0.0,0 STARLINK-6221,1 56484U 23064AN  23359.38021320 -.00000555  00000-0 -38769-4 0  9997,2 56484  70.0007 354.8504 0002827 257.6894 102.3949 14.98321497 35118,6950.219,96.108,574.049,570.119,0.0
56484.0,STARLINK-6221,PAYLOAD,2023-12-26 02:44:58,14.98330474,0.0002708,70.0013,352.9987,263.3882,96.6969,1.0944e-05,3.8e-07,0.0,0 STARLINK-6221,1 56484U 23064AN  23360.11456654  .00000038  00000-0  10944-4 0  9991,2 56484  70.0013 352.9987 0002708 263.3882  96.6969 14.98330474 35581,6950.191,96.107,573.939,570.174,0.0
56484.0,STARLINK-6221,PAYLOAD,2023-12-26 09:09:30,14.98332066,0.0002415,70.0024,352.328,248.903,111.1871,4.5699e-05,4.52e-06,0.0,0 STARLINK-6221,1 56484U 23064AN  23360.38160473  .00000452  00000-0  45699-4 0  9996,2 56484  70.0024 352.3280 0002415 248.9030 111.1871 14.98332066 35261,6950.187,96.107,573.73,570.373,0.0
56484.0,STARLINK-6221,PAYLOAD,2023-12-27 02:46:59,14.98323145,0.0002808,70.0021,350.4753,267.9416,92.1422,0.00013236,1.486e-05,0.0,0 STARLINK-6221,1 56484U 23064AN  23361.11596694  .00001486  00000-0  13236-3 0  9995,2 56484  70.0021 350.4753 0002808 267.9416  92.1422 14.98323145 35737,6950.214,96.107,574.031,570.127,0.0
56484.0,STARLINK-6221,PAYLOAD,2023-12-27 09:11:31,14.98326446,0.0002442,70.0014,349.7993,268.2089,91.879,0.00014266,1.609e-05,0.0,0 STARLINK-6221,1 56484U 23064AN  23361.38300579  .00001609  00000-0  14266-3 0  9990,2 56484  70.0014 349.7993 0002442 268.2089  91.8790 14.98326446 35416,6950.204,96.107,573.766,570.372,0.0
56484.0,STARLINK-6221,PAYLOAD,2023-12-28 04:25:08,14.9833278,0.000291,70.0011,347.7808,268.3607,91.7218,-1.885e-05,-3.18e-06,0.0,0 STARLINK-6221,1 56484U 23064AN  23362.18412405 -.00000318  00000-0 -18850-4 0  9993,2 56484  70.0011 347.7808 0002910 268.3607  91.7218 14.98332780 35897,6950.184,96.107,574.072,570.027,0.0
56484.0,STARLINK-6221,PAYLOAD,2023-12-28 09:13:32,14.9833508,0.0002744,70.0011,347.274,269.3809,90.7036,4.1429e-05,4.01e-06,0.0,0 STARLINK-6221,1 56484U 23064AN  23362.38440063  .00000401  00000-0  41429-4 0  9995,2 56484  70.0011 347.2740 0002744 269.3809  90.7036 14.98335080 35564,6950.177,96.107,573.949,570.135,0.0
56484.0,STARLINK-6221,PAYLOAD,2023-12-29 02:51:01,14.98313665,0.0002755,70.0011,345.423,270.8883,89.196,0.00020134,2.309e-05,0.0,0 STARLINK-6221,1 56484U 23064AN  23363.11876729  .00002309  00000-0  20134-3 0  9997,2 56484  70.0011 345.4230 0002755 270.8883  89.1960 14.98313665 36035,6950.243,96.108,574.023,570.194,0.0
56484.0,STARLINK-6221,PAYLOAD,2023-12-29 09:15:33,14.98324864,0.0002763,70.0011,344.7503,270.5641,89.5201,-8.8783e-07,-1.04e-06,0.0,0 STARLINK-6221,1 56484U 23064AN  23363.38580765 -.00000104  00000-0 -88783-6 0  9998,2 56484  70.0011 344.7503 0002763 270.5641  89.5201 14.98324864 35717,6950.209,96.107,573.994,570.153,0.0
56484.0,STARLINK-6221,PAYLOAD,2023-12-30 02:53:02,14.98330966,0.0002979,70.0006,342.899,266.4906,93.5912,-2.9481e-05,-4.45e-06,0.0,0 STARLINK-6221,1 56484U 23064AN  23364.12016372 -.00000445  00000-0 -29481-4 0  9995,2 56484  70.0006 342.8990 0002979 266.4906  93.5912 14.98330966 36183,6950.19,96.107,574.125,569.984,0.0
56484.0,STARLINK-6221,PAYLOAD,2023-12-30 09:17:34,14.98334575,0.0002806,70.001,342.2262,261.4513,98.6329,9.3195e-06,1.8e-07,0.0,0 STARLINK-6221,1 56484U 23064AN  23364.38719963  .00000018  00000-0  93195-5 0  9997,2 56484  70.0010 342.2262 0002806 261.4513  98.6329 14.98334575 35864,6950.179,96.107,573.994,570.094,0.0
56484.0,STARLINK-6221,PAYLOAD,2023-12-30 22:06:38,14.98327668,0.0002406,70.0017,340.8793,265.8245,94.264,7.4569e-05,7.97e-06,0.0,0 STARLINK-6221,1 56484U 23064AN  23364.92128200  .00000797  00000-0  74569-4 0  9992,2 56484  70.0017 340.8793 0002406 265.8245  94.2640 14.98327668 35942,6950.2,96.107,573.737,570.393,0.0
56484.0,STARLINK-6221,PAYLOAD,2023-12-31 02:55:03,14.98325601,0.0002806,70.0012,340.3747,264.8263,95.2576,1.7795e-05,1.19e-06,0.0,0 STARLINK-6221,1 56484U 23064AN  23365.12156477  .00000119  00000-0  17795-4 0  9998,2 56484  70.0012 340.3747 0002806 264.8263  95.2576 14.98325601 36332,6950.206,96.107,574.022,570.121,0.0
56484.0,STARLINK-6221,PAYLOAD,2023-12-31 09:19:35,14.98325653,0.0002727,70.0014,339.7015,263.3016,96.7833,2.0299e-05,1.49e-06,0.0,0 STARLINK-6221,1 56484U 23064AN  23365.38860535  .00000149  00000-0  20299-4 0  9999,2 56484  70.0014 339.7015 0002727 263.3016  96.7833 14.98325653 36010,6950.206,96.107,573.967,570.176,0.0
56484.0,STARLINK-6221,PAYLOAD,2024-01-01 02:57:04,14.98329935,0.0002956,70.0011,337.8499,267.7171,92.3649,-2.6178e-06,-1.24e-06,0.0,0 STARLINK-6221,1 56484U 23064AN  24001.12296335 -.00000124  00000-0 -26178-5 0  9998,2 56484  70.0011 337.8499 0002956 267.7171  92.3649 14.98329935 36481,6950.193,96.107,574.113,570.004,0.0
56484.0,STARLINK-6221,PAYLOAD,2024-01-01 07:45:28,14.98325263,0.0001995,70.0026,337.3454,289.4843,70.61,2.708e-05,2.3e-06,0.0,0 STARLINK-6221,1 56484U 23064AN  24001.32324912  .00000230  00000-0  27080-4 0  9991,2 56484  70.0026 337.3454 0001995 289.4843  70.6100 14.98325263 36517,6950.208,96.107,573.459,570.686,0.0
56484.0,STARLINK-6221,PAYLOAD,2024-01-02 02:59:04,14.98335425,0.0002721,70.0011,335.3249,254.5863,105.4995,9.8054e-05,1.077e-05,0.0,0 STARLINK-6221,1 56484U 23064AN  24002.12435570  .00001077  00000-0  98054-4 0  9992,2 56484  70.0011 335.3249 0002721 254.5863 105.4995 14.98335425 36637,6950.176,96.107,573.932,570.15,0.0
56484.0,STARLINK-6221,PAYLOAD,2024-01-02 07:47:28,14.98331235,0.0002905,70.0011,334.8198,266.0189,94.0638,5.0314e-05,5.07e-06,0.0,0 STARLINK-6221,1 56484U 23064AN  24002.32463988  .00000507  00000-0  50314-4 0  9992,2 56484  70.0011 334.8198 0002905 266.0189  94.0638 14.98331235 36303,6950.189,96.107,574.073,570.035,0.0
56484.0,STARLINK-6221,PAYLOAD,2024-01-02 22:12:41,14.98324822,0.0002968,70.0012,333.3055,268.359,91.7229,9.3942e-05,1.028e-05,0.0,0 STARLINK-6221,1 56484U 23064AN  24002.92548145  .00001028  00000-0  93942-4 0  9990,2 56484  70.0012 333.3055 0002968 268.3590  91.7229 14.98324822 36393,6950.209,96.107,574.137,570.011,0.0
56484.0,STARLINK-6221,PAYLOAD,2024-01-03 07:49:30,14.98324511,0.0002939,70.0012,332.2958,268.706,91.3763,0.00012465,1.394e-05,0.0,0 STARLINK-6221,1 56484U 23064AN  24003.32604177  .00001394  00000-0  12465-3 0  9999,2 56484  70.0012 332.2958 0002939 268.7060  91.3763 14.98324511 36818,6950.21,96.107,574.118,570.032,0.0
56484.0,STARLINK-6221,PAYLOAD,2024-01-03 22:14:42,14.98331122,0.0002826,70.0013,330.7815,262.383,97.7008,-9.4034e-06,-2.05e-06,0.0,0 STARLINK-6221,1 56484U 23064AN  24003.92688016 -.00000205  00000-0 -94034-5 0  9995,2 56484  70.0013 330.7815 0002826 262.3830  97.7008 14.98331122 36542,6950.189,96.107,574.019,570.09,0.0
56484.0,STARLINK-6221,PAYLOAD,2024-01-04 07:51:30,14.98333504,0.0002789,70.0013,329.7713,259.8166,100.2679,1.855e-05,1.28e-06,0.0,0 STARLINK-6221,1 56484U 23064AN  24004.32743713  .00000128  00000-0  18550-4 0  9996,2 56484  70.0013 329.7713 0002789 259.8166 100.2679 14.98333504 36964,6950.182,96.107,573.985,570.109,0.0
56484.0,STARLINK-6221,PAYLOAD,2024-01-04 22:16:43,14.98326723,0.0002682,70.0013,328.2549,265.0824,95.0029,-3.3572e-05,-4.93e-06,0.0,0 STARLINK-6221,1 56484U 23064AN  24004.92828324 -.00000493  00000-0 -33572-4 0  9992,2 56484  70.0013 328.2549 0002682 265.0824  95.0029 14.98326723 36692,6950.203,96.107,573.932,570.204,0.0
